{"spkid": "54109176", "covariance": {"data": [["3.987464138889903E-14", "-9.717038362939232E-14", "-7.327733129544554E-12", "-4.544682230281389E-12", "-6.893063933956674E-12", "8.573110885900345E-12"], ["-9.717038362939232E-14", "2.369078802076239E-13", "1.777498012542299E-11", "1.101903895850665E-11", "1.649875055427849E-11", "-2.046085759299794E-11"], ["-7.327733129544554E-12", "1.777498012542299E-11", "1.73799749570483E-9", "8.806976228361192E-10", "1.781469695397908E-9", "-2.17431588682481E-9"], ["-4.544682230281389E-12", "1.101903895850665E-11", "8.806976228361192E-10", "8.057248604375886E-10", "6.938007421127479E-10", "-1.540997028533504E-9"], ["-6.893063933956674E-12", "1.649875055427849E-11", "1.781469695397908E-9", "6.938007421127479E-10", "2.484389745890996E-9", "-2.554672152396059E-9"], ["8.573110885900345E-12", "-2.046085759299794E-11", "-2.17431588682481E-9", "-1.540997028533504E-9", "-2.554672152396059E-9", "4.469641830048449E-9"]], "elements": [{"units": null, "title": "eccentricity", "value": ".7012513155700164", "name": "e", "sigma": 1.99686357543271e-07, "label": "e"}, {"label": "q", "title": "perihelion distance", "value": ".7143599173182511", "units": "au", "sigma": 4.86731836032557e-07, "name": "q"}, {"sigma": 4.16892971361335e-05, "name": "tp", "units": "TDB", "value": "2460540.868004369756", "title": "time of perihelion passage", "label": "tp"}, {"label": "node", "units": "deg", "value": "324.9186158087317", "title": "longitude of the ascending node", "sigma": 2.83852930306803e-05, "name": "om"}, {"name": "w", "sigma": 4.98436530151131e-05, "title": "argument of perihelion", "value": "81.15053672193814", "units": "deg", "label": "peri"}, {"label": "i", "units": "deg", "title": "inclination", "value": "19.51077201374791", "sigma": 6.6855379963384e-05, "name": "i"}], "labels": ["e", "q", "tp", "node", "peri", "i"], "epoch": "2460032.5"}, "elements": [{"units": null, "value": ".7010471764344347", "title": "eccentricity", "sigma": "1.9945E-7", "name": "e", "label": "e"}, {"name": "a", "sigma": "4.728E-8", "title": "semi-major axis", "value": "2.390736091193378", "units": "au", "label": "a"}, {"units": "au", "title": "perihelion distance", "value": ".7147173048623632", "sigma": "4.8657E-7", "name": "q", "label": "q"}, {"label": "i", "name": "i", "sigma": "6.6851E-5", "value": "19.51069048801316", "title": "inclination; angle with respect to x-y ecliptic plane", "units": "deg"}, {"sigma": "2.8386E-5", "name": "om", "units": "deg", "title": "longitude of the ascending node", "value": "324.8720261516249", "label": "node"}, {"label": "peri", "name": "w", "sigma": "4.9924E-5", "units": "deg", "value": "81.22887873511343", "title": "argument of perihelion"}, {"label": "M", "units": "deg", "value": "175.9153091543681", "title": "mean anomaly", "sigma": "1.4325E-5", "name": "ma"}, {"title": "time of perihelion passage", "value": "2460540.723232636803", "units": "TDB", "sigma": "4.1732E-5", "name": "tp", "label": "tp"}, {"label": "period", "sigma": "4.0053E-5", "name": "per", "value": "1350.193097988556", "title": "sidereal orbital period", "units": "d"}, {"label": "n", "title": "mean motion", "value": ".2666285293091102", "units": "deg/d", "name": "n", "sigma": "7.9094E-9"}, {"label": "Q", "units": "au", "title": "aphelion distance", "value": "4.066754877524393", "sigma": "8.0426E-8", "name": "ad"}], "epoch": "2461200.5"}